[{"OBJECT_NAME":"POEM-2","OBJECT_ID":"2023-057A","EPOCH":"2026-03-09T23:37:57.201312","MEAN_MOTION":14.94660083,"ECCENTRICITY":0.00213726,"INCLINATION":9.8873,"RA_OF_ASC_NODE":262.7521,"ARG_OF_PERICENTER":321.9306,"MEAN_ANOMALY":37.9396,"EPHEMERIS_TYPE":0,"CLASSIFICATION_TYPE":"U","NORAD_CAT_ID":56308,"ELEMENT_SET_NO":999,"REV_AT_EPOCH":15739,"BSTAR":0.0002074301,"MEAN_MOTION_DOT":3.02e-5,"MEAN_MOTION_DDOT":0},{"OBJECT_NAME":"STARLINK-5931","OBJECT_ID":"2023-078U","EPOCH":"2026-03-09T22:24:23.485824","MEAN_MOTION":14.9832927,"ECCENTRICITY":0.00028752,"INCLINATION":70.0004,"RA_OF_ASC_NODE":343.9713,"ARG_OF_PERICENTER":273.751,"MEAN_ANOMALY":86.332,"EPHEMERIS_TYPE":0,"CLASSIFICATION_TYPE":"U","NORAD_CAT_ID":56785,"ELEMENT_SET_NO":999,"REV_AT_EPOCH":15340,"BSTAR":-2.6054243e-5,"MEAN_MOTION_DOT":-4.04e-6,"MEAN_MOTION_DDOT":0}]
